{"type": "FeatureCollection", "features": [ {"type": "Feature", "properties": {"norad_id": 44476, "name": "INTELSAT 39 (IS-39)", "group": "intelsat", "lat": 0.006626274720528797, "lon": 76.27051882992349, "alt_km": 35784.182219782786, "timestamp": "2025-12-21T18:54:58.161307+00:00", "meta": {"OBJECT_NAME": "INTELSAT 39 (IS-39)", "OBJECT_ID": "2019-049B", "EPOCH": "2025-12-21T11:46:48.398880", "MEAN_MOTION": 1.00270807, "ECCENTRICITY": 0.0001101, "INCLINATION": 0.0011, "RA_OF_ASC_NODE": 79.4939, "ARG_OF_PERICENTER": 59.3805, "MEAN_ANOMALY": 190.0826, "EPHEMERIS_TYPE": 0, "CLASSIFICATION_TYPE": "U", "NORAD_CAT_ID": 44476, "ELEMENT_SET_NO": 999, "REV_AT_EPOCH": 2334, "BSTAR": 0, "MEAN_MOTION_DOT": 5.6e-07, "MEAN_MOTION_DDOT": 0}, "tle": {"line1": "1 44476U 19049B   25355.49083795  .00000056  00000+0  00000+0 0  9992", "line2": "2 44476   0.0011  79.4939 0001101  59.3805 190.0826  1.00270807 23346"}}, "geometry": {"type": "Point", "coordinates": [76.27051882992349, 0.006626274720528797]}}, {"type": "Feature", "properties": {"norad_id": 46114, "name": "GALAXY 30 (G-30)", "group": "intelsat", "lat": -0.04213908517135442, "lon": -110.64623590754759, "alt_km": 35777.623381837, "timestamp": "2025-12-21T18:54:58.161318+00:00", "meta": {"OBJECT_NAME": "GALAXY 30 (G-30)", "OBJECT_ID": "2020-056C", "EPOCH": "2025-12-21T00:37:13.930752", "MEAN_MOTION": 1.00273357, "ECCENTRICITY": 0.00020294, "INCLINATION": 0.0178, "RA_OF_ASC_NODE": 349.0054, "ARG_OF_PERICENTER": 282.3653, "MEAN_ANOMALY": 62.8096, "EPHEMERIS_TYPE": 0, "CLASSIFICATION_TYPE": "U", "NORAD_CAT_ID": 46114, "ELEMENT_SET_NO": 999, "REV_AT_EPOCH": 1950, "BSTAR": 0, "MEAN_MOTION_DOT": 6e-07, "MEAN_MOTION_DDOT": 0}, "tle": {"line1": "1 46114U 20056C   25355.02585568  .00000060  00000+0  00000+0 0  9992", "line2": "2 46114   0.0178 349.0054 0002029 282.3653  62.8096  1.00273357 19505"}}, "geometry": {"type": "Point", "coordinates": [-110.64623590754759, -0.04213908517135442]}}, {"type": "Feature", "properties": {"norad_id": 54026, "name": "GALAXY 33 (G-33)", "group": "intelsat", "lat": -0.018771570842607062, "lon": -118.67112099902073, "alt_km": 35780.321922802614, "timestamp": "2025-12-21T18:54:58.161329+00:00", "meta": {"OBJECT_NAME": "GALAXY 33 (G-33)", "OBJECT_ID": "2022-128A", "EPOCH": "2025-12-21T09:30:38.534112", "MEAN_MOTION": 1.00271517, "ECCENTRICITY": 0.00015631, "INCLINATION": 0.018, "RA_OF_ASC_NODE": 50.6658, "ARG_OF_PERICENTER": 219.4803, "MEAN_ANOMALY": 189.7317, "EPHEMERIS_TYPE": 0, "CLASSIFICATION_TYPE": "U", "NORAD_CAT_ID": 54026, "ELEMENT_SET_NO": 999, "REV_AT_EPOCH": 1196, "BSTAR": 0, "MEAN_MOTION_DOT": 1.02e-06, "MEAN_MOTION_DDOT": 0}, "tle": {"line1": "1 54026U 22128A   25355.39627933  .00000102  00000+0  00000+0 0  9995", "line2": "2 54026   0.0180  50.6658 0001563 219.4803 189.7317  1.00271517 11967"}}, "geometry": {"type": "Point", "coordinates": [-118.67112099902073, -0.018771570842607062]}}, {"type": "Feature", "properties": {"norad_id": 54027, "name": "GALAXY 34 (G-34)", "group": "intelsat", "lat": -0.039861190636601526, "lon": -114.62470983884697, "alt_km": 35780.087174484, "timestamp": "2025-12-21T18:54:58.161341+00:00", "meta": {"OBJECT_NAME": "GALAXY 34 (G-34)", "OBJECT_ID": "2022-128B", "EPOCH": "2025-12-21T09:30:38.534112", "MEAN_MOTION": 1.0026817, "ECCENTRICITY": 0.00017605, "INCLINATION": 0.0237, "RA_OF_ASC_NODE": 17.5979, "ARG_OF_PERICENTER": 248.2874, "MEAN_ANOMALY": 198.0421, "EPHEMERIS_TYPE": 0, "CLASSIFICATION_TYPE": "U", "NORAD_CAT_ID": 54027, "ELEMENT_SET_NO": 999, "REV_AT_EPOCH": 1213, "BSTAR": 0, "MEAN_MOTION_DOT": 0, "MEAN_MOTION_DDOT": 0}, "tle": {"line1": "1 54027U 22128B   25355.39627933  .00000000  00000+0  00000+0 0  9993", "line2": "2 54027   0.0237  17.5979 0001760 248.2874 198.0421  1.00268170 12136"}}, "geometry": {"type": "Point", "coordinates": [-114.62470983884697, -0.039861190636601526]}}, {"type": "Feature", "properties": {"norad_id": 54243, "name": "GALAXY 31 (G-31)", "group": "intelsat", "lat": -0.012389258599228816, "lon": -106.67108858395855, "alt_km": 35780.946419945976, "timestamp": "2025-12-21T18:54:58.161352+00:00", "meta": {"OBJECT_NAME": "GALAXY 31 (G-31)", "OBJECT_ID": "2022-153A", "EPOCH": "2025-12-21T07:29:09.697056", "MEAN_MOTION": 1.00271234, "ECCENTRICITY": 0.00013856, "INCLINATION": 0.0226, "RA_OF_ASC_NODE": 88.887, "ARG_OF_PERICENTER": 190.6923, "MEAN_ANOMALY": 161.8441, "EPHEMERIS_TYPE": 0, "CLASSIFICATION_TYPE": "U", "NORAD_CAT_ID": 54243, "ELEMENT_SET_NO": 999, "REV_AT_EPOCH": 534, "BSTAR": 0, "MEAN_MOTION_DOT": 3.6e-07, "MEAN_MOTION_DDOT": 0}, "tle": {"line1": "1 54243U 22153A   25355.31191779  .00000036  00000+0  00000+0 0  9996", "line2": "2 54243   0.0226  88.8870 0001385 190.6923 161.8441  1.00271234  5343"}}, "geometry": {"type": "Point", "coordinates": [-106.67108858395855, -0.012389258599228816]}}, {"type": "Feature", "properties": {"norad_id": 54244, "name": "GALAXY 32 (G-32)", "group": "intelsat", "lat": -0.03132463541826814, "lon": -76.67624371435883, "alt_km": 35779.85244253916, "timestamp": "2025-12-21T18:54:58.161363+00:00", "meta": {"OBJECT_NAME": "GALAXY 32 (G-32)", "OBJECT_ID": "2022-153B", "EPOCH": "2025-12-21T04:12:15.832800", "MEAN_MOTION": 1.00270554, "ECCENTRICITY": 0.0001949, "INCLINATION": 0.0108, "RA_OF_ASC_NODE": 337.5471, "ARG_OF_PERICENTER": 342.4382, "MEAN_ANOMALY": 102.082, "EPHEMERIS_TYPE": 0, "CLASSIFICATION_TYPE": "U", "NORAD_CAT_ID": 54244, "ELEMENT_SET_NO": 999, "REV_AT_EPOCH": 1135, "BSTAR": 0, "MEAN_MOTION_DOT": -1.51e-06, "MEAN_MOTION_DDOT": 0}, "tle": {"line1": "1 54244U 22153B   25355.17518325 -.00000151  00000+0  00000+0 0  9990", "line2": "2 54244   0.0108 337.5471 0001949 342.4382 102.0820  1.00270554 11356"}}, "geometry": {"type": "Point", "coordinates": [-76.67624371435883, -0.03132463541826814]}}, {"type": "Feature", "properties": {"norad_id": 54741, "name": "GALAXY 35 (G-35)", "group": "intelsat", "lat": -0.023745681326918705, "lon": -78.75159279959334, "alt_km": 35776.95081900616, "timestamp": "2025-12-21T18:54:58.161374+00:00", "meta": {"OBJECT_NAME": "GALAXY 35 (G-35)", "OBJECT_ID": "2022-170A", "EPOCH": "2025-12-21T12:45:20.292768", "MEAN_MOTION": 1.00271965, "ECCENTRICITY": 0.00021682, "INCLINATION": 0.0149, "RA_OF_ASC_NODE": 69.1799, "ARG_OF_PERICENTER": 203.9912, "MEAN_ANOMALY": 275.4209, "EPHEMERIS_TYPE": 0, "CLASSIFICATION_TYPE": "U", "NORAD_CAT_ID": 54741, "ELEMENT_SET_NO": 999, "REV_AT_EPOCH": 1111, "BSTAR": 0, "MEAN_MOTION_DOT": -1.4e-06, "MEAN_MOTION_DDOT": 0}, "tle": {"line1": "1 54741U 22170A   25355.53148487 -.00000140  00000+0  00000+0 0  9997", "line2": "2 54741   0.0149  69.1799 0002168 203.9912 275.4209  1.00271965 11115"}}, "geometry": {"type": "Point", "coordinates": [-78.75159279959334, -0.023745681326918705]}}, {"type": "Feature", "properties": {"norad_id": 54742, "name": "GALAXY 36 (G-36)", "group": "intelsat", "lat": -0.038453560037434255, "lon": -74.67388745405879, "alt_km": 35786.03474210219, "timestamp": "2025-12-21T18:54:58.161385+00:00", "meta": {"OBJECT_NAME": "GALAXY 36 (G-36)", "OBJECT_ID": "2022-170B", "EPOCH": "2025-12-21T12:55:50.229120", "MEAN_MOTION": 1.00269039, "ECCENTRICITY": 4.273e-05, "INCLINATION": 0.0153, "RA_OF_ASC_NODE": 33.0658, "ARG_OF_PERICENTER": 314.471, "MEAN_ANOMALY": 207.7753, "EPHEMERIS_TYPE": 0, "CLASSIFICATION_TYPE": "U", "NORAD_CAT_ID": 54742, "ELEMENT_SET_NO": 999, "REV_AT_EPOCH": 1099, "BSTAR": 0, "MEAN_MOTION_DOT": 0, "MEAN_MOTION_DDOT": 0}, "tle": {"line1": "1 54742U 22170B   25355.53877580  .00000000  00000+0  00000+0 0  9995", "line2": "2 54742   0.0153  33.0658 0000427 314.4710 207.7753  1.00269039 10991"}}, "geometry": {"type": "Point", "coordinates": [-74.67388745405879, -0.038453560037434255]}}, {"type": "Feature", "properties": {"norad_id": 57493, "name": "GALAXY 37 (G-37)", "group": "intelsat", "lat": -0.031943572490724666, "lon": -112.68040314016383, "alt_km": 35778.9132715137, "timestamp": "2025-12-21T18:54:58.161396+00:00", "meta": {"OBJECT_NAME": "GALAXY 37 (G-37)", "OBJECT_ID": "2023-112A", "EPOCH": "2025-12-21T13:30:00.825120", "MEAN_MOTION": 1.00271107, "ECCENTRICITY": 0.00019449, "INCLINATION": 0.0117, "RA_OF_ASC_NODE": 15.358, "ARG_OF_PERICENTER": 258.8831, "MEAN_ANOMALY": 251.6359, "EPHEMERIS_TYPE": 0, "CLASSIFICATION_TYPE": "U", "NORAD_CAT_ID": 57493, "ELEMENT_SET_NO": 999, "REV_AT_EPOCH": 876, "BSTAR": 0, "MEAN_MOTION_DOT": 7.1e-07, "MEAN_MOTION_DDOT": 0}, "tle": {"line1": "1 57493U 23112A   25355.56250955  .00000071  00000+0  00000+0 0  9990", "line2": "2 57493   0.0117  15.3580 0001944 258.8831 251.6359  1.00271107  8765"}}, "geometry": {"type": "Point", "coordinates": [-112.68040314016383, -0.031943572490724666]}}]}